CCSDS_OMM_VERS = 2.0
CREATION_DATE  = 
ORIGINATOR     = 

OBJECT_NAME    = COSMOS 2600
OBJECT_ID      = 2026-023A
CENTER_NAME    = EARTH
REF_FRAME      = TEME
TIME_SYSTEM    = UTC
MEAN_ELEMENT_THEORY = SGP/SGP4

EPOCH          = 2026-02-24T13:35:21.816672
MEAN_MOTION    = 15.83635302
ECCENTRICITY   = .0001362
INCLINATION    = 96.6461
RA_OF_ASC_NODE = 131.6210
ARG_OF_PERICENTER = 49.8071
MEAN_ANOMALY   = 310.3320

EPHEMERIS_TYPE = 0
CLASSIFICATION_TYPE = U
NORAD_CAT_ID   = 67674
ELEMENT_SET_NO = 999
REV_AT_EPOCH   = 297
BSTAR          = .41379E-3
MEAN_MOTION_DOT = .91105E-3
MEAN_MOTION_DDOT = 0

CCSDS_OMM_VERS = 2.0
CREATION_DATE  = 
ORIGINATOR     = 

OBJECT_NAME    = 2026-023B
OBJECT_ID      = 2026-023B
CENTER_NAME    = EARTH
REF_FRAME      = TEME
TIME_SYSTEM    = UTC
MEAN_ELEMENT_THEORY = SGP/SGP4

EPOCH          = 2026-02-25T11:57:17.708832
MEAN_MOTION    = 15.22657004
ECCENTRICITY   = .0018636
INCLINATION    = 96.6379
RA_OF_ASC_NODE = 130.8591
ARG_OF_PERICENTER = 173.6376
MEAN_ANOMALY   = 186.5103

EPHEMERIS_TYPE = 0
CLASSIFICATION_TYPE = U
NORAD_CAT_ID   = 67675
ELEMENT_SET_NO = 999
REV_AT_EPOCH   = 300
BSTAR          = .39612E-3
MEAN_MOTION_DOT = .9208E-4
MEAN_MOTION_DDOT = 0

CCSDS_OMM_VERS = 2.0
CREATION_DATE  = 
ORIGINATOR     = 

OBJECT_NAME    = 2026-023C
OBJECT_ID      = 2026-023C
CENTER_NAME    = EARTH
REF_FRAME      = TEME
TIME_SYSTEM    = UTC
MEAN_ELEMENT_THEORY = SGP/SGP4

EPOCH          = 2026-02-25T11:56:02.617728
MEAN_MOTION    = 15.22747983
ECCENTRICITY   = .0019777
INCLINATION    = 96.6415
RA_OF_ASC_NODE = 130.8776
ARG_OF_PERICENTER = 163.9200
MEAN_ANOMALY   = 196.2670

EPHEMERIS_TYPE = 0
CLASSIFICATION_TYPE = U
NORAD_CAT_ID   = 67676
ELEMENT_SET_NO = 999
REV_AT_EPOCH   = 316
BSTAR          = .53415E-3
MEAN_MOTION_DOT = .12484E-3
MEAN_MOTION_DDOT = 0

CCSDS_OMM_VERS = 2.0
CREATION_DATE  = 
ORIGINATOR     = 

OBJECT_NAME    = 2026-023D
OBJECT_ID      = 2026-023D
CENTER_NAME    = EARTH
REF_FRAME      = TEME
TIME_SYSTEM    = UTC
MEAN_ELEMENT_THEORY = SGP/SGP4

EPOCH          = 2026-02-25T11:58:27.670368
MEAN_MOTION    = 15.22584601
ECCENTRICITY   = .001994
INCLINATION    = 96.6445
RA_OF_ASC_NODE = 130.8641
ARG_OF_PERICENTER = 168.8912
MEAN_ANOMALY   = 191.2771

EPHEMERIS_TYPE = 0
CLASSIFICATION_TYPE = U
NORAD_CAT_ID   = 67677
ELEMENT_SET_NO = 999
REV_AT_EPOCH   = 299
BSTAR          = .47256E-3
MEAN_MOTION_DOT = .10983E-3
MEAN_MOTION_DDOT = 0

CCSDS_OMM_VERS = 2.0
CREATION_DATE  = 
ORIGINATOR     = 

OBJECT_NAME    = 2026-023E
OBJECT_ID      = 2026-023E
CENTER_NAME    = EARTH
REF_FRAME      = TEME
TIME_SYSTEM    = UTC
MEAN_ELEMENT_THEORY = SGP/SGP4

EPOCH          = 2026-02-25T11:56:31.917696
MEAN_MOTION    = 15.22727386
ECCENTRICITY   = .0019755
INCLINATION    = 96.6338
RA_OF_ASC_NODE = 130.8540
ARG_OF_PERICENTER = 168.3372
MEAN_ANOMALY   = 191.8328

EPHEMERIS_TYPE = 0
CLASSIFICATION_TYPE = U
NORAD_CAT_ID   = 67678
ELEMENT_SET_NO = 999
REV_AT_EPOCH   = 299
BSTAR          = .55886E-3
MEAN_MOTION_DOT = .13057E-3
MEAN_MOTION_DDOT = 0

CCSDS_OMM_VERS = 2.0
CREATION_DATE  = 
ORIGINATOR     = 

OBJECT_NAME    = 2026-023F
OBJECT_ID      = 2026-023F
CENTER_NAME    = EARTH
REF_FRAME      = TEME
TIME_SYSTEM    = UTC
MEAN_ELEMENT_THEORY = SGP/SGP4

EPOCH          = 2026-02-25T11:53:56.108256
MEAN_MOTION    = 15.22875753
ECCENTRICITY   = .0021653
INCLINATION    = 96.6345
RA_OF_ASC_NODE = 133.3527
ARG_OF_PERICENTER = 163.2473
MEAN_ANOMALY   = 196.9486

EPHEMERIS_TYPE = 0
CLASSIFICATION_TYPE = U
NORAD_CAT_ID   = 67679
ELEMENT_SET_NO = 999
REV_AT_EPOCH   = 298
BSTAR          = .61134E-3
MEAN_MOTION_DOT = .1437E-3
MEAN_MOTION_DDOT = 0

CCSDS_OMM_VERS = 2.0
CREATION_DATE  = 
ORIGINATOR     = 

OBJECT_NAME    = 2026-023G
OBJECT_ID      = 2026-023G
CENTER_NAME    = EARTH
REF_FRAME      = TEME
TIME_SYSTEM    = UTC
MEAN_ELEMENT_THEORY = SGP/SGP4

EPOCH          = 2026-02-25T11:54:39.200256
MEAN_MOTION    = 15.22828240
ECCENTRICITY   = .0023232
INCLINATION    = 96.6273
RA_OF_ASC_NODE = 133.3419
ARG_OF_PERICENTER = 159.8372
MEAN_ANOMALY   = 200.3790

EPHEMERIS_TYPE = 0
CLASSIFICATION_TYPE = U
NORAD_CAT_ID   = 67680
ELEMENT_SET_NO = 999
REV_AT_EPOCH   = 298
BSTAR          = .57983E-3
MEAN_MOTION_DOT = .13619E-3
MEAN_MOTION_DDOT = 0

CCSDS_OMM_VERS = 2.0
CREATION_DATE  = 
ORIGINATOR     = 

OBJECT_NAME    = 2026-023H
OBJECT_ID      = 2026-023H
CENTER_NAME    = EARTH
REF_FRAME      = TEME
TIME_SYSTEM    = UTC
MEAN_ELEMENT_THEORY = SGP/SGP4

EPOCH          = 2026-02-25T08:45:14.277312
MEAN_MOTION    = 15.22791765
ECCENTRICITY   = .0023243
INCLINATION    = 96.6418
RA_OF_ASC_NODE = 133.2434
ARG_OF_PERICENTER = 159.6216
MEAN_ANOMALY   = 200.5955

EPHEMERIS_TYPE = 0
CLASSIFICATION_TYPE = U
NORAD_CAT_ID   = 67681
ELEMENT_SET_NO = 999
REV_AT_EPOCH   = 296
BSTAR          = .44175E-3
MEAN_MOTION_DOT = .10346E-3
MEAN_MOTION_DDOT = 0

CCSDS_OMM_VERS = 2.0
CREATION_DATE  = 
ORIGINATOR     = 

OBJECT_NAME    = 2026-023J
OBJECT_ID      = 2026-023J
CENTER_NAME    = EARTH
REF_FRAME      = TEME
TIME_SYSTEM    = UTC
MEAN_ELEMENT_THEORY = SGP/SGP4

EPOCH          = 2026-02-25T11:53:27.159072
MEAN_MOTION    = 15.22886293
ECCENTRICITY   = .0023498
INCLINATION    = 96.6374
RA_OF_ASC_NODE = 133.3675
ARG_OF_PERICENTER = 155.9838
MEAN_ANOMALY   = 204.2502

EPHEMERIS_TYPE = 0
CLASSIFICATION_TYPE = U
NORAD_CAT_ID   = 67682
ELEMENT_SET_NO = 999
REV_AT_EPOCH   = 298
BSTAR          = .37833E-3
MEAN_MOTION_DOT = .8877E-4
MEAN_MOTION_DDOT = 0

CCSDS_OMM_VERS = 2.0
CREATION_DATE  = 
ORIGINATOR     = 

OBJECT_NAME    = ISS OBJECT XZ
OBJECT_ID      = 1998-067XZ
CENTER_NAME    = EARTH
REF_FRAME      = TEME
TIME_SYSTEM    = UTC
MEAN_ELEMENT_THEORY = SGP/SGP4

EPOCH          = 2026-02-25T10:09:37.814112
MEAN_MOTION    = 15.50759480
ECCENTRICITY   = .0009859
INCLINATION    = 51.6308
RA_OF_ASC_NODE = 132.7483
ARG_OF_PERICENTER = 145.2647
MEAN_ANOMALY   = 214.8988

EPHEMERIS_TYPE = 0
CLASSIFICATION_TYPE = U
NORAD_CAT_ID   = 67683
ELEMENT_SET_NO = 999
REV_AT_EPOCH   = 288
BSTAR          = .58732E-3
MEAN_MOTION_DOT = .34181E-3
MEAN_MOTION_DDOT = 0

CCSDS_OMM_VERS = 2.0
CREATION_DATE  = 
ORIGINATOR     = 

OBJECT_NAME    = GXIBA-1
OBJECT_ID      = 1998-067YA
CENTER_NAME    = EARTH
REF_FRAME      = TEME
TIME_SYSTEM    = UTC
MEAN_ELEMENT_THEORY = SGP/SGP4

EPOCH          = 2026-02-25T09:52:50.695968
MEAN_MOTION    = 15.52283656
ECCENTRICITY   = .0011314
INCLINATION    = 51.6310
RA_OF_ASC_NODE = 132.6717
ARG_OF_PERICENTER = 136.6154
MEAN_ANOMALY   = 223.5729

EPHEMERIS_TYPE = 0
CLASSIFICATION_TYPE = U
NORAD_CAT_ID   = 67684
ELEMENT_SET_NO = 999
REV_AT_EPOCH   = 288
BSTAR          = .10031E-2
MEAN_MOTION_DOT = .6228E-3
MEAN_MOTION_DDOT = 0

CCSDS_OMM_VERS = 2.0
CREATION_DATE  = 
ORIGINATOR     = 

OBJECT_NAME    = CORAL
OBJECT_ID      = 1998-067YB
CENTER_NAME    = EARTH
REF_FRAME      = TEME
TIME_SYSTEM    = UTC
MEAN_ELEMENT_THEORY = SGP/SGP4

EPOCH          = 2026-02-25T10:06:38.751840
MEAN_MOTION    = 15.51003889
ECCENTRICITY   = .0011765
INCLINATION    = 51.6309
RA_OF_ASC_NODE = 132.7349
ARG_OF_PERICENTER = 141.4592
MEAN_ANOMALY   = 218.7239

EPHEMERIS_TYPE = 0
CLASSIFICATION_TYPE = U
NORAD_CAT_ID   = 67685
ELEMENT_SET_NO = 999
REV_AT_EPOCH   = 288
BSTAR          = .65018E-3
MEAN_MOTION_DOT = .38274E-3
MEAN_MOTION_DDOT = 0

