COSMOS 2600             
1 67674U 26023A   26055.56622473  .00091105  00000+0  41379-3 0  9998
2 67674  96.6461 131.6210 0001362  49.8071 310.3320 15.83635302  2975
2026-023B               
1 67675U 26023B   26056.49812163  .00009208  00000+0  39612-3 0  9999
2 67675  96.6379 130.8591 0018636 173.6376 186.5103 15.22657004  3006
2026-023C               
1 67676U 26023C   26056.49725252  .00012484  00000+0  53415-3 0  9999
2 67676  96.6415 130.8776 0019777 163.9200 196.2670 15.22747983  3168
2026-023D               
1 67677U 26023D   26056.49893137  .00010983  00000+0  47256-3 0  9996
2 67677  96.6445 130.8641 0019940 168.8912 191.2771 15.22584601  2992
2026-023E               
1 67678U 26023E   26056.49759164  .00013057  00000+0  55886-3 0  9991
2 67678  96.6338 130.8540 0019755 168.3372 191.8328 15.22727386  2994
2026-023F               
1 67679U 26023F   26056.49578829  .00014370  00000+0  61134-3 0  9991
2 67679  96.6345 133.3527 0021653 163.2473 196.9486 15.22875753  2984
2026-023G               
1 67680U 26023G   26056.49628704  .00013619  00000+0  57983-3 0  9993
2 67680  96.6273 133.3419 0023232 159.8372 200.3790 15.22828240  2987
2026-023H               
1 67681U 26023H   26056.36474858  .00010346  00000+0  44175-3 0  9992
2 67681  96.6418 133.2434 0023243 159.6216 200.5955 15.22791765  2966
2026-023J               
1 67682U 26023J   26056.49545323  .00008877  00000+0  37833-3 0  9992
2 67682  96.6374 133.3675 0023498 155.9838 204.2502 15.22886293  2989
ISS OBJECT XZ           
1 67683U 98067XZ  26056.42335433  .00034181  00000+0  58732-3 0  9990
2 67683  51.6308 132.7483 0009859 145.2647 214.8988 15.50759480  2885
GXIBA-1                 
1 67684U 98067YA  26056.41169787  .00062280  00000+0  10031-2 0  9997
2 67684  51.6310 132.6717 0011314 136.6154 223.5729 15.52283656  2883
CORAL                   
1 67685U 98067YB  26056.42128185  .00038274  00000+0  65018-3 0  9998
2 67685  51.6309 132.7349 0011765 141.4592 218.7239 15.51003889  2883
